TJS-14                  
1 62804U 25017A   26196.86850242  .00000105  00000+0  00000+0 0  9998
2 62804   0.7195 297.7790 0002051 308.9614  18.0438  1.00267314  5557
SPAINSAT NG I           
1 62852U 25021A   26196.91923437  .00000141  00000+0  00000+0 0  9999
2 62852   0.0198  35.6590 0000107 243.2282  14.7714  1.00270376  4275
QZS-6 (MICHIBIKI-6)     
1 62876U 25023A   26196.78887578 -.00000242  00000+0  00000+0 0  9990
2 62876   0.0103  12.6020 0001839 119.3403 176.0977  1.00266863  5237
ZHONGXING-10R           
1 63075U 25036A   26196.86412138 -.00000362  00000+0  00000+0 0  9994
2 63075   0.0163 222.5924 0004215 284.6409 208.0705  1.00271932  5242
TJS-15                  
1 63157U 25045A   26196.78956911 -.00000275  00000+0  00000+0 0  9991
2 63157   0.3119  85.6598 0003066 292.9051 293.6840  1.00273597  5047
TIANLIAN 2-04           
1 63361U 25062A   26196.85811584 -.00000143  00000+0  00000+0 0  9995
2 63361   4.3025 274.0277 0031603   9.2105  39.3974  1.00271313  4898
TJS-16                  
1 63397U 25064A   26196.78744207 -.00000116  00000+0  00000+0 0  9995
2 63397   1.1700  81.2787 0002479 291.6842   4.7594  1.00270906  4677
TJS-17                  
1 63524U 25073A   26196.78645788 -.00000081  00000+0  00000+0 0  9992
2 63524   1.1360  82.4463 0000992 306.3943 352.4100  1.00270762  4574
TIANLIAN 2-05           
1 63662U 25084A   26196.91750103  .00000116  00000+0  00000+0 0  9998
2 63662   4.3799 279.5073 0002600 154.6200 210.2884  1.00271857  4679
TJS-19                  
1 63924U 25097A   26196.78800941 -.00000283  00000+0  00000+0 0  9990
2 63924   3.2394 317.9160 0004092 253.1642 147.4040  1.00275653  4432
CHINASAT 3B             
1 64062U 25106A   26196.80404252 -.00000055  00000+0  00000+0 0  9990
2 64062   0.0244 146.9233 0003979 359.3460 244.1417  1.00271282  4343
SXM-10                  
1 64290U 25122A   26194.60932681 -.00000021  00000+0  00000+0 0  9992
2 64290   0.0157  36.2449 0001828 322.9748  35.4661  1.00271903  3942
COSMOS 2589             
1 64467U 25131A   26196.77108698 -.00000301  00000+0  00000+0 0  9992
2 64467   0.0263 114.6010 0000982  81.0100 113.6102  1.00270156  3843
CHINASAT 9C             
1 64470U 25132A   26196.86048135  .00000000  00000+0  00000+0 0  9991
2 64470   0.0192  78.3923 0003021  36.4113 220.8702  1.00266578  4438
MTG-S1                  
1 64723U 25143A   26196.88655817 -.00000017  00000+0  00000+0 0  9996
2 64723   0.5838 345.2794 0003427 260.9778   6.2294  1.00273732  3705
DROR 1                  
1 64784U 25148A   26196.88655817 -.00000045  00000+0  00000+0 0  9999
2 64784   0.0459 250.8655 0001983 146.4293 211.5909  1.00272089  3582
SHIYAN-29               
1 65486U 25196A   26196.70123477 -.00000287  00000+0  00000+0 0  9993
2 65486  28.8520  18.1755 0013257 177.9040  85.2184  1.00276249  3168
NUSANTARA LIMA (NUSANT*)
1 65588U 25205A   26196.79329580 -.00000368  00000+0  00000+0 0  9999
2 65588   0.0085 120.1832 0000409  84.7645 127.1025  1.00271718  3009
TJS-20                  
1 66142U 25238A   26196.92582108  .00000017  00000+0  00000+0 0  9994
2 66142   5.4063 299.4408 0004309 182.5842 207.5074  1.00275280  2621
CMS-03 (GSAT-7R)        
1 66311U 25249B   26196.92816109 -.00000087  00000+0  00000+0 0  9993
2 66311   0.0137 327.6780 0001497 113.0391 261.1577  1.00271386  2630
VIASAT-3 F2             
1 66454U 25261A   26195.32953781 -.00000240  00000+0  00000+0 0  9997
2 66454   0.0014 307.9780 0000749 275.9845 107.8920  1.00270448  3068
SHIJIAN-28 (SJ-28)      
1 66549U 25277A   26196.72272083 -.00000368  00000+0  00000+0 0  9994
2 66549   4.4659 271.6800 0001141  22.6060  16.2463  1.00266659  2444
TJS-22                  
1 66990U 25290A   26193.80754925 -.00000005  00000+0  00000+0 0  9993
2 66990   1.4677 286.9097 0002691 318.9700  42.0235  1.00269739  2289
TJS-23                  
1 67226U 25306A   26196.52394281  .00000013  00000+0  00000+0 0  9999
2 67226   5.5248 297.3376 0005035 195.1882 165.0385  1.00275619  2172
FENGYUN 4C              
1 67246U 25312A   26194.65865777 -.00000328  00000+0  00000+0 0  9993
2 67246   0.0385 175.3203 0000658  48.7481  77.5697  1.00269440  2048
SHIJIAN-29A (SJ-29A)    
1 67302U 25315A   26196.96691894 -.00000080  00000+0  00000+0 0  9997
2 67302   3.4691  94.4166 0004900  52.1052 208.5353  1.00272517  1902
SHIJIAN-29B (SJ-29B)    
1 67403U 25315C   26196.92798775 -.00000081  00000+0  00000+0 0  9992
2 67403   3.4680  94.4104 0005040  54.2684 192.3730  1.00272786  1978
ELEKTRO-L 5             
1 67756U 26028A   26195.97521403 -.00000107  00000+0  00000+0 0  9990
2 67756   0.2077 324.6350 0002073 175.9176 219.4446  1.00271918  1527
JAM-E JAM 1             
1 67757U 26028B   26196.92027439  .00000145  00000+0  00000+0 0  9998
2 67757   0.2052 313.2597 0001659 320.1006  25.7303  1.00274299  1405
ECHOSTAR 25             
1 68126U 26045A   26196.89159484  .00000000  00000+0  00000+0 0  9990
2 68126   0.0223  63.5269 0001716  47.9654  33.2296  1.00268808  1282
TJS-24                  
1 69235U 26116A   26196.86013469 -.00000241  00000+0  00000+0 0  9998
2 69235   0.0792  94.6608 0000364 120.9289 118.0438  1.00269642   513
